[{"OBJECT_NAME":"HAWK-9A","OBJECT_ID":"2024-066E","EPOCH":"2026-03-09T10:20:39.002208","MEAN_MOTION":14.98777479,"ECCENTRICITY":0.00036271,"INCLINATION":45.6088,"RA_OF_ASC_NODE":72.7153,"ARG_OF_PERICENTER":244.6286,"MEAN_ANOMALY":115.4219,"EPHEMERIS_TYPE":0,"CLASSIFICATION_TYPE":"U","NORAD_CAT_ID":59446,"ELEMENT_SET_NO":999,"REV_AT_EPOCH":10486,"BSTAR":0.00023458946,"MEAN_MOTION_DOT":2.638e-5,"MEAN_MOTION_DDOT":0},{"OBJECT_NAME":"STARLINK-34461","OBJECT_ID":"2025-129G","EPOCH":"2026-03-09T10:16:06.900096","MEAN_MOTION":14.98331937,"ECCENTRICITY":0.0003089,"INCLINATION":70.0007,"RA_OF_ASC_NODE":75.294,"ARG_OF_PERICENTER":266.5562,"MEAN_ANOMALY":93.5244,"EPHEMERIS_TYPE":0,"CLASSIFICATION_TYPE":"U","NORAD_CAT_ID":64418,"ELEMENT_SET_NO":999,"REV_AT_EPOCH":4124,"BSTAR":-5.079014e-5,"MEAN_MOTION_DOT":-6.99e-6,"MEAN_MOTION_DDOT":0}]
